{
    "type": "FeatureCollection",
    "features": [
        {
            "type": "Feature",
            "geometry": {
                "type": "Point",
                "coordinates": [
                    99.0,
                    18.5
                ]
            },
            "properties": {
                "region_thai": "ภาคเหนือ",
                "rain_chance": "10",
                "wind_speed": "10 - 25",
                "temp_min": "21 - 27",
                "temp_max": "30 - 35",
                "wave_height": null,
                "description_thai": "ในช่วงวันที่ 8 – 9 และ 12 – 13 ต.ค. 69 มีฝนฟ้าคะนอง ร้อยละ 10 – 30 ของพื้นที่ ส่วนมากทางด้านตะวันตกและทางตอนล่างของภาค\r\nส่วนในช่วงวันที่ 10 - 11 ต.ค. 69 มีฝนฟ้าคะนอง ร้อยละ 40 - 60 ของพื้นที่ และมีฝนตกหนัก กับมีลมกระโชกแรงบางแห่ง\r\nลมตะวันออก ความเร็ว 10 - 25 กม./ชม.\r\nอุณหภูมิต่ำสุด 21 - 27 องศาเซลเซียส อุณหภูมิสูงสุด 30 - 35 องศาเซลเซียส",
                "region_eng": "North"
            }
        },
        {
            "type": "Feature",
            "geometry": {
                "type": "Point",
                "coordinates": [
                    103.0,
                    16.0
                ]
            },
            "properties": {
                "region_thai": "ภาคตะวันออกเฉียงเหนือ",
                "rain_chance": "10",
                "wind_speed": "10 - 20",
                "temp_min": "21 - 26",
                "temp_max": "30 - 35",
                "wave_height": null,
                "description_thai": "ในช่วงวันที่ 7 – 8 ต.ค. 69 มีฝน ร้อยละ 10 – 20 ของพื้นที่\r\nลมตะวันออกเฉียงเหนือ ความเร็ว 10 - 20 กม./ชม.\r\nส่วนในช่วงวันที่ 9 – 10 ต.ค. 69 มีฝนฟ้าคะนอง ร้อยละ 30 – 60 ของพื้นที่ และมีฝนตกหนัก กับมีลมกระโชกแรงบางแห่ง\r\nโดยในช่วงวันที่ 11 - 12 ต.ค. 69 มีฝนฟ้าคะนอง ร้อยละ 20 – 40 ของพื้นที่ \r\nลมตะวันออกเฉียงเหนือ ความเร็ว 10 - 30 กม./ชม.\r\nอุณหภูมิต่ำสุด 21 - 26 องศาเซลเซียส อุณหภูมิสูงสุด 30 - 35 องศาเซลเซียส",
                "region_eng": "North East"
            }
        },
        {
            "type": "Feature",
            "geometry": {
                "type": "Point",
                "coordinates": [
                    100.5,
                    14.5
                ]
            },
            "properties": {
                "region_thai": "ภาคกลาง",
                "rain_chance": "20 - 30",
                "wind_speed": "10 - 20",
                "temp_min": "23",
                "temp_max": "30",
                "wave_height": null,
                "description_thai": "ในช่วงวันที่ 7 – 9 ต.ค. 69 มีฝนฟ้าคะนอง ร้อยละ 20 - 30 ของพื้นที่ \r\nลมตะวันออก ความเร็ว 10 - 20 กม./ชม.\r\nส่วนในช่วงวันที่ 10 - 11 ต.ค. 69 มีฝนฟ้าคะนอง ร้อยละ 60 - 70 ของพื้นที่ และมีฝนตกหนัก กับมีลมกระโชกแรงบางแห่ง\r\nโดยในช่วงวันที่ 12 - 13 ต.ค. 69 มีฝนฟ้าคะนอง ร้อยละ 30 – 40 ของพื้นที่ \r\nลมตะวันออกเฉียงเหนือ ความเร็ว 10 - 20 กม./ชม.\r\nอุณหภูมิต่ำสุด 23 – 27 องศาเซลเซียส อุณหภูมิสูงสุด 30 – 35 องศาเซลเซียส",
                "region_eng": "Central"
            }
        },
        {
            "type": "Feature",
            "geometry": {
                "type": "Point",
                "coordinates": [
                    101.5,
                    13.0
                ]
            },
            "properties": {
                "region_thai": "ภาคตะวันออก",
                "rain_chance": "20 - 30",
                "wind_speed": null,
                "temp_min": "22 - 26",
                "temp_max": "30 - 34",
                "wave_height": null,
                "description_thai": "ในช่วงวันที่ 7 - 9 ต.ค. 69 มีฝนฟ้าคะนอง ร้อยละ 20 - 30 ของพื้นที่ \r\nส่วนในช่วงวันที่ 10 - 11 ต.ค. 69 มีฝนฟ้าคะนอง ร้อยละ 60 - 70 ของพื้นที่ และมีฝนตกหนักถึงหนักมาก กับมีลมกระโชกแรงบางแห่ง\r\nโดยในช่วงวันที่ 12 - 13 ต.ค. 69 มีฝนฟ้าคะนอง ร้อยละ 30 – 40 ของพื้นที่ \r\nลมตะวันออก ความเร็ว 15 – 30 กม./ชม. ทะเลมีคลื่นสูงต่ำกว่า 1 เมตร บริเวณที่มีฝนฟ้าคะนองคลื่นสูงมากกว่า 2 เมตร\r\nอุณหภูมิต่ำสุด 22 - 26 องศาเซลเซียส อุณหภูมิสูงสุด 30 - 34 องศาเซลเซียส",
                "region_eng": "East"
            }
        },
        {
            "type": "Feature",
            "geometry": {
                "type": "Point",
                "coordinates": [
                    99.5,
                    9.0
                ]
            },
            "properties": {
                "region_thai": "ภาคใต้ฝั่งตะวันออก",
                "rain_chance": "60",
                "wind_speed": "15 - 30",
                "temp_min": "22 - 27",
                "temp_max": "30 - 34",
                "wave_height": null,
                "description_thai": "มีฝนฟ้าคะนอง ร้อยละ 60 – 70 ของพื้นที่ ตลอดช่วง และมีฝนตกหนักถึงหนักมากบางแห่งในช่วงวันที่ 10 - 12 ต.ค. 69 \r\nตั้งแต่ จ.สุราษฎร์ธานี ขึ้นมา: ลมแปรปรวน ความเร็ว 15 - 30 กม./ชม.ทะเลมีคลื่นสูงประมาณ 1 เมตร และบริเวณที่มีฝนฟ้าคะนองคลื่นสูงมากกว่า 2 เมตร\r\nตั้งแต่ จ.นครศรีธรรมราช ลงไป: ลมตะวันตก ความเร็ว 10 - 30 กม./ชม. ทะเลมีคลื่นต่ำกว่า 1 เมตร ห่างฝั่งคลื่นสูงประมาณ 1 เมตร และบริเวณที่มีฝนฟ้าคะนองคลื่นสูงมากกว่า 2 เมตร\r\nอุณหภูมิต่ำสุด 22 - 27 องศาเซลเซียส อุณหภูมิสูงสุด 30 - 34 องศาเซลเซียส",
                "region_eng": "South East Coast"
            }
        },
        {
            "type": "Feature",
            "geometry": {
                "type": "Point",
                "coordinates": [
                    98.5,
                    8.0
                ]
            },
            "properties": {
                "region_thai": "ภาคใต้ฝั่งตะวันตก",
                "rain_chance": "60",
                "wind_speed": "15 - 30",
                "temp_min": "23  - 27",
                "temp_max": "30 - 35",
                "wave_height": null,
                "description_thai": "มีฝนฟ้าคะนอง ร้อยละ 60 – 70 ของพื้นที่ ตลอดช่วง และมีฝนตกหนักบางแห่งในช่วงวันที่ 11 - 13 ต.ค. 69\r\nตั้งแต่จังหวัดภูเก็ตขึ้นมา: ลมแปรปรวน ความเร็ว 15 - 30 กม./ชม. ทะเลมีคลื่นสูงประมาณ 1 เมตร บริเวณฝนฟ้าคะนองคลื่นสูงมากกว่า 2 เมตร\r\nตั้งแต่จังหวัดกระบี่ลงไป: ลมตะวันตกเฉียงใต้ ความเร็ว 15 - 30 กม./ชม. ทะเลมีคลื่นสูงประมาณ 1 เมตร บริเวณฝนฟ้าคะนองคลื่นสูงมากกว่า 2 เมตร\r\nอุณหภูมิต่ำสุด 23  - 27 องศาเซลเซียส อุณหภูมิสูงสุด 30 - 35 องศาเซลเซียส",
                "region_eng": "South West Coast"
            }
        },
        {
            "type": "Feature",
            "geometry": {
                "type": "Point",
                "coordinates": [
                    100.5,
                    13.75
                ]
            },
            "properties": {
                "region_thai": "กรุงเทพและปริมณฑล",
                "rain_chance": "20 - 30",
                "wind_speed": "10 - 20",
                "temp_min": "23",
                "temp_max": "31",
                "wave_height": null,
                "description_thai": "ส่วนในช่วงวันที่ 7 – 9 ต.ค. 69 มีฝนฟ้าคะนอง ร้อยละ 20 - 30 ของพื้นที่ \r\nในช่วงวันที่ 10 - 11 ต.ค. 69 มีฝนฟ้าคะนอง ร้อยละ 60 - 70 ของพื้นที่ และมีฝนตกหนัก กับมีลมกระโชกแรงบางแห่ง\r\nโดยในช่วงวันที่ 12 - 13 ต.ค. 69 มีฝนฟ้าคะนอง ร้อยละ 30 – 40 ของพื้นที่ \r\nลมตะวันออก ความเร็ว 10 - 20 กม./ชม.\r\nอุณหภูมิต่ำสุด 23 – 26 องศาเซลเซียส อุณหภูมิสูงสุด 31 – 36 องศาเซลเซียส",
                "region_eng": "Bangkok and Perimeters"
            }
        }
    ]
}